[{"CCSDS_OMM_VERS":"3.0","COMMENT":"GENERATED VIA SPACE-TRACK.ORG API","CREATION_DATE":"2026-03-28T16:36:19","ORIGINATOR":"18 SPCS","OBJECT_NAME":"COSMOS 2251 DEB","OBJECT_ID":"1993-036AML","CENTER_NAME":"EARTH","REF_FRAME":"TEME","TIME_SYSTEM":"UTC","MEAN_ELEMENT_THEORY":"SGP4","EPOCH":"2026-03-28T07:37:25.862016","MEAN_MOTION":"14.26166544","ECCENTRICITY":"0.00992310","INCLINATION":"74.0826","RA_OF_ASC_NODE":"98.3360","ARG_OF_PERICENTER":"78.8431","MEAN_ANOMALY":"282.3853","EPHEMERIS_TYPE":"0","CLASSIFICATION_TYPE":"U","NORAD_CAT_ID":"35593","ELEMENT_SET_NO":"999","REV_AT_EPOCH":"86570","BSTAR":"0.00063584000000","MEAN_MOTION_DOT":"0.00001579","MEAN_MOTION_DDOT":"0.0000000000000","SEMIMAJOR_AXIS":"7182.710","PERIOD":"100.970","APOAPSIS":"875.850","PERIAPSIS":"733.300","OBJECT_TYPE":"DEBRIS","RCS_SIZE":"SMALL","COUNTRY_CODE":"CIS","LAUNCH_DATE":"1993-06-16","SITE":"PKMTR","DECAY_DATE":null,"FILE":"5103601","GP_ID":"317421601","TLE_LINE0":"0 COSMOS 2251 DEB","TLE_LINE1":"1 35593U 93036AML 26087.31766044  .00001579  00000-0  63584-3 0  9991","TLE_LINE2":"2 35593  74.0826  98.3360 0099231  78.8431 282.3853 14.26166544865704"},{"CCSDS_OMM_VERS":"3.0","COMMENT":"GENERATED VIA SPACE-TRACK.ORG API","CREATION_DATE":"2026-03-28T16:36:19","ORIGINATOR":"18 SPCS","OBJECT_NAME":"COSMOS 2251 DEB","OBJECT_ID":"1993-036AMM","CENTER_NAME":"EARTH","REF_FRAME":"TEME","TIME_SYSTEM":"UTC","MEAN_ELEMENT_THEORY":"SGP4","EPOCH":"2026-03-28T10:38:38.422464","MEAN_MOTION":"14.91245711","ECCENTRICITY":"0.00282900","INCLINATION":"73.8052","RA_OF_ASC_NODE":"252.1806","ARG_OF_PERICENTER":"340.1514","MEAN_ANOMALY":"19.8564","EPHEMERIS_TYPE":"0","CLASSIFICATION_TYPE":"U","NORAD_CAT_ID":"35594","ELEMENT_SET_NO":"999","REV_AT_EPOCH":"89759","BSTAR":"0.00146270000000","MEAN_MOTION_DOT":"0.00014656","MEAN_MOTION_DDOT":"0.0000000000000","SEMIMAJOR_AXIS":"6972.187","PERIOD":"96.564","APOAPSIS":"613.776","PERIAPSIS":"574.328","OBJECT_TYPE":"DEBRIS","RCS_SIZE":"SMALL","COUNTRY_CODE":"CIS","LAUNCH_DATE":"1993-06-16","SITE":"PKMTR","DECAY_DATE":null,"FILE":"5103601","GP_ID":"317422101","TLE_LINE0":"0 COSMOS 2251 DEB","TLE_LINE1":"1 35594U 93036AMM 26087.44350026  .00014656  00000-0  14627-2 0  9998","TLE_LINE2":"2 35594  73.8052 252.1806 0028290 340.1514  19.8564 14.91245711897592"},{"CCSDS_OMM_VERS":"3.0","COMMENT":"GENERATED VIA SPACE-TRACK.ORG API","CREATION_DATE":"2011-07-15T17:49:57","ORIGINATOR":"18 SPCS","OBJECT_NAME":"COSMOS 2251 DEB","OBJECT_ID":"1993-036AMN","CENTER_NAME":"EARTH","REF_FRAME":"TEME","TIME_SYSTEM":"UTC","MEAN_ELEMENT_THEORY":"SGP4","EPOCH":"2011-07-13T08:48:32.766624","MEAN_MOTION":"15.95064216","ECCENTRICITY":"0.00382030","INCLINATION":"73.8417","RA_OF_ASC_NODE":"309.3865","ARG_OF_PERICENTER":"356.7542","MEAN_ANOMALY":"8.8851","EPHEMERIS_TYPE":"0","CLASSIFICATION_TYPE":"U","NORAD_CAT_ID":"35595","ELEMENT_SET_NO":"999","REV_AT_EPOCH":"11985","BSTAR":"0.00194880000000","MEAN_MOTION_DOT":"0.00812444","MEAN_MOTION_DDOT":"0.0002884900000","SEMIMAJOR_AXIS":"6666.276","PERIOD":"90.278","APOAPSIS":"313.608","PERIAPSIS":"262.674","OBJECT_TYPE":"DEBRIS","RCS_SIZE":"SMALL","COUNTRY_CODE":"CIS","LAUNCH_DATE":"1993-06-16","SITE":"PKMTR","DECAY_DATE":"2011-07-18","FILE":"1122215","GP_ID":"84048745","TLE_LINE0":"0 COSMOS 2251 DEB","TLE_LINE1":"1 35595U 93036AMN 11194.36704591  .00812444  28849-3  19488-2 0  9998","TLE_LINE2":"2 35595 073.8417 309.3865 0038203 356.7542 008.8851 15.95064216119854"},{"CCSDS_OMM_VERS":"3.0","COMMENT":"GENERATED VIA SPACE-TRACK.ORG API","CREATION_DATE":"2017-06-29T22:51:02","ORIGINATOR":"18 SPCS","OBJECT_NAME":"COSMOS 2251 DEB","OBJECT_ID":"1993-036AMP","CENTER_NAME":"EARTH","REF_FRAME":"TEME","TIME_SYSTEM":"UTC","MEAN_ELEMENT_THEORY":"SGP4","EPOCH":"2017-06-27T10:20:08.768256","MEAN_MOTION":"15.80645499","ECCENTRICITY":"0.00217050","INCLINATION":"73.8852","RA_OF_ASC_NODE":"202.7818","ARG_OF_PERICENTER":"270.7967","MEAN_ANOMALY":"105.4010","EPHEMERIS_TYPE":"0","CLASSIFICATION_TYPE":"U","NORAD_CAT_ID":"35596","ELEMENT_SET_NO":"999","REV_AT_EPOCH":"3864","BSTAR":"0.00428200000000","MEAN_MOTION_DOT":"0.00919194","MEAN_MOTION_DDOT":"0.0000000000000","SEMIMAJOR_AXIS":"6706.751","PERIOD":"91.102","APOAPSIS":"343.173","PERIAPSIS":"314.059","OBJECT_TYPE":"DEBRIS","RCS_SIZE":"SMALL","COUNTRY_CODE":"CIS","LAUNCH_DATE":"1993-06-16","SITE":"PKMTR","DECAY_DATE":"2017-07-06","FILE":"2165321","GP_ID":"112257736","TLE_LINE0":"0 COSMOS 2251 DEB","TLE_LINE1":"1 35596U 93036AMP 17178.43065704 +.00919194 +00000-0 +42820-2 0  9993","TLE_LINE2":"2 35596 073.8852 202.7818 0021705 270.7967 105.4010 15.80645499038647"},{"CCSDS_OMM_VERS":"3.0","COMMENT":"GENERATED VIA SPACE-TRACK.ORG API","CREATION_DATE":"2013-06-06T05:37:57","ORIGINATOR":"18 SPCS","OBJECT_NAME":"COSMOS 2251 DEB","OBJECT_ID":"1993-036AMQ","CENTER_NAME":"EARTH","REF_FRAME":"TEME","TIME_SYSTEM":"UTC","MEAN_ELEMENT_THEORY":"SGP4","EPOCH":"2013-05-17T10:27:04.411871","MEAN_MOTION":"15.66607435","ECCENTRICITY":"0.00509280","INCLINATION":"74.0320","RA_OF_ASC_NODE":"108.2255","ARG_OF_PERICENTER":"262.4173","MEAN_ANOMALY":"243.7941","EPHEMERIS_TYPE":"0","CLASSIFICATION_TYPE":"U","NORAD_CAT_ID":"35597","ELEMENT_SET_NO":"999","REV_AT_EPOCH":"21742","BSTAR":"0.00382410000000","MEAN_MOTION_DOT":"0.00450950","MEAN_MOTION_DDOT":"0.0000000000000","SEMIMAJOR_AXIS":"6746.761","PERIOD":"91.918","APOAPSIS":"402.985","PERIAPSIS":"334.266","OBJECT_TYPE":"DEBRIS","RCS_SIZE":"SMALL","COUNTRY_CODE":"CIS","LAUNCH_DATE":"1993-06-16","SITE":"PKMTR","DECAY_DATE":"2013-06-08","FILE":"1496177","GP_ID":"93039241","TLE_LINE0":"0 COSMOS 2251 DEB","TLE_LINE1":"1 35597U 93036AMQ 13137.43546773  .00450950  00000-0  38241-2 0  9997","TLE_LINE2":"2 35597 074.0320 108.2255 0050928 262.4173 243.7941 15.66607435217428"},{"CCSDS_OMM_VERS":"3.0","COMMENT":"GENERATED VIA SPACE-TRACK.ORG API","CREATION_DATE":"2022-08-09T07:06:17","ORIGINATOR":"18 SPCS","OBJECT_NAME":"COSMOS 2251 DEB","OBJECT_ID":"1993-036AMR","CENTER_NAME":"EARTH","REF_FRAME":"TEME","TIME_SYSTEM":"UTC","MEAN_ELEMENT_THEORY":"SGP4","EPOCH":"2022-08-08T20:50:54.863520","MEAN_MOTION":"15.79557976","ECCENTRICITY":"0.00163180","INCLINATION":"73.8967","RA_OF_ASC_NODE":"23.9469","ARG_OF_PERICENTER":"201.8914","MEAN_ANOMALY":"158.1619","EPHEMERIS_TYPE":"0","CLASSIFICATION_TYPE":"U","NORAD_CAT_ID":"35598","ELEMENT_SET_NO":"999","REV_AT_EPOCH":"72299","BSTAR":"0.00279440000000","MEAN_MOTION_DOT":"0.00544450","MEAN_MOTION_DDOT":"0.0000000000000","SEMIMAJOR_AXIS":"6709.829","PERIOD":"91.165","APOAPSIS":"342.643","PERIAPSIS":"320.745","OBJECT_TYPE":"DEBRIS","RCS_SIZE":"SMALL","COUNTRY_CODE":"CIS","LAUNCH_DATE":"1993-06-16","SITE":"PKMTR","DECAY_DATE":"2022-08-22","FILE":"3532445","GP_ID":"209867165","TLE_LINE0":"0 COSMOS 2251 DEB","TLE_LINE1":"1 35598U 93036AMR 22220.86869055  .00544450  00000-0  27944-2 0  9996","TLE_LINE2":"2 35598  73.8967  23.9469 0016318 201.8914 158.1619 15.79557976722990"},{"CCSDS_OMM_VERS":"3.0","COMMENT":"GENERATED VIA SPACE-TRACK.ORG API","CREATION_DATE":"2011-12-10T08:13:36","ORIGINATOR":"18 SPCS","OBJECT_NAME":"COSMOS 2251 DEB","OBJECT_ID":"1993-036AMS","CENTER_NAME":"EARTH","REF_FRAME":"TEME","TIME_SYSTEM":"UTC","MEAN_ELEMENT_THEORY":"SGP4","EPOCH":"2011-12-10T07:52:19.547327","MEAN_MOTION":"15.68198583","ECCENTRICITY":"0.00266130","INCLINATION":"73.9849","RA_OF_ASC_NODE":"109.1491","ARG_OF_PERICENTER":"75.5226","MEAN_ANOMALY":"284.8846","EPHEMERIS_TYPE":"0","CLASSIFICATION_TYPE":"U","NORAD_CAT_ID":"35599","ELEMENT_SET_NO":"999","REV_AT_EPOCH":"13816","BSTAR":"0.01702800000000","MEAN_MOTION_DOT":"0.02211666","MEAN_MOTION_DDOT":"0.0000000000000","SEMIMAJOR_AXIS":"6742.196","PERIOD":"91.825","APOAPSIS":"382.004","PERIAPSIS":"346.118","OBJECT_TYPE":"DEBRIS","RCS_SIZE":"SMALL","COUNTRY_CODE":"CIS","LAUNCH_DATE":"1993-06-16","SITE":"PKMTR","DECAY_DATE":"2011-12-15","FILE":"1203712","GP_ID":"86278299","TLE_LINE0":"0 COSMOS 2251 DEB","TLE_LINE1":"1 35599U 93036AMS 11344.32800402  .02211666  00000-0  17028-1 0  9997","TLE_LINE2":"2 35599 073.9849 109.1491 0026613 075.5226 284.8846 15.68198583138166"},{"CCSDS_OMM_VERS":"3.0","COMMENT":"GENERATED VIA SPACE-TRACK.ORG API","CREATION_DATE":"2025-04-09T17:16:24","ORIGINATOR":"18 SPCS","OBJECT_NAME":"COSMOS 2251 DEB","OBJECT_ID":"1993-036AMT","CENTER_NAME":"EARTH","REF_FRAME":"TEME","TIME_SYSTEM":"UTC","MEAN_ELEMENT_THEORY":"SGP4","EPOCH":"2022-09-22T19:38:32.972352","MEAN_MOTION":"14.68542843","ECCENTRICITY":"0.00588760","INCLINATION":"73.9905","RA_OF_ASC_NODE":"312.0087","ARG_OF_PERICENTER":"25.5873","MEAN_ANOMALY":"334.8189","EPHEMERIS_TYPE":"0","CLASSIFICATION_TYPE":"U","NORAD_CAT_ID":"35600","ELEMENT_SET_NO":"999","REV_AT_EPOCH":"71314","BSTAR":"0.00085744000000","MEAN_MOTION_DOT":"0.00005078","MEAN_MOTION_DDOT":"0.0000000000000","SEMIMAJOR_AXIS":"7043.861","PERIOD":"98.056","APOAPSIS":"707.197","PERIAPSIS":"624.254","OBJECT_TYPE":"DEBRIS","RCS_SIZE":"SMALL","COUNTRY_CODE":"CIS","LAUNCH_DATE":"1993-06-16","SITE":"PKMTR","DECAY_DATE":"2024-07-22","FILE":"4696474","GP_ID":"285198333","TLE_LINE0":"0 COSMOS 2251 DEB","TLE_LINE1":"1 35600U 93036AMT 22265.81843718  .00005078  00000-0  85744-3 0  9993","TLE_LINE2":"2 35600  73.9905 312.0087 0058876  25.5873 334.8189 14.68542843713141"}]